start=new Date('2023-04-17T00:00:00.000Z').valueOf();
sats=[{"RCS_SIZE":"LARGE","ELEMENT_SET_NO":"999","CENTER_NAME":"EARTH","FILE":"3888799","PERIAPSIS":"357.079","OBJECT_TYPE":"PAYLOAD","INCLINATION":"69.9974","MEAN_MOTION_DDOT":"0.0000000000000","TIME_SYSTEM":"UTC","ARG_OF_PERICENTER":"257.9852","EPHEMERIS_TYPE":"0","PERIOD":"91.724","MEAN_ANOMALY":"102.1006","EPOCH":"2023-04-16T14:20:02.577120","ECCENTRICITY":"0.00030170","OBJECT_ID":"2023-010AE","BSTAR":"-0.00000972530000","SEMIMAJOR_AXIS":"6737.247","GP_ID":"230200518","TLE_LINE1":"1 55297U 23010AE  23106.59725205 -.00001382  00000-0 -97253-5 0  9998","TLE_LINE2":"2 55297  69.9974 184.1264 0003017 257.9852 102.1006 15.69925654 14488","SITE":"AFWTR","APOAPSIS":"361.144","MEAN_MOTION":"15.69925654","LAUNCH_DATE":"2023-01-19","CLASSIFICATION_TYPE":"U","MEAN_MOTION_DOT":"-0.00001382","REV_AT_EPOCH":"1448","NORAD_CAT_ID":"55297","MEAN_ELEMENT_THEORY":"SGP4","RA_OF_ASC_NODE":"184.1264","REF_FRAME":"TEME","DECAY_DATE":null,"COUNTRY_CODE":"US","OBJECT_NAME":"STARLINK-5284"},{"MEAN_MOTION_DOT":"-0.00002593","LAUNCH_DATE":"2023-01-19","CLASSIFICATION_TYPE":"U","MEAN_MOTION":"15.69920947","SITE":"AFWTR","APOAPSIS":"361.255","COUNTRY_CODE":"US","OBJECT_NAME":"STARLINK-5272","DECAY_DATE":null,"RA_OF_ASC_NODE":"184.1273","REF_FRAME":"TEME","NORAD_CAT_ID":"55298","REV_AT_EPOCH":"1536","MEAN_ELEMENT_THEORY":"SGP4","PERIOD":"91.724","EPOCH":"2023-04-16T14:19:26.585472","MEAN_ANOMALY":"100.6899","ECCENTRICITY":"0.00031620","OBJECT_ID":"2023-010AF","ARG_OF_PERICENTER":"259.3940","TIME_SYSTEM":"UTC","EPHEMERIS_TYPE":"0","INCLINATION":"69.9984","MEAN_MOTION_DDOT":"0.0000000000000","FILE":"3888799","CENTER_NAME":"EARTH","ELEMENT_SET_NO":"999","RCS_SIZE":"LARGE","OBJECT_TYPE":"PAYLOAD","PERIAPSIS":"356.995","TLE_LINE1":"1 55298U 23010AF  23106.59683548 -.00002593  00000-0 -19809-4 0  9997","TLE_LINE2":"2 55298  69.9984 184.1273 0003162 259.3940 100.6899 15.69920947 15366","GP_ID":"230201773","BSTAR":"-0.00001980900000","SEMIMAJOR_AXIS":"6737.260"},{"MEAN_MOTION_DDOT":"0.0000000000000","INCLINATION":"69.9972","ELEMENT_SET_NO":"999","RCS_SIZE":"LARGE","FILE":"3888799","CENTER_NAME":"EARTH","OBJECT_TYPE":"PAYLOAD","PERIAPSIS":"356.494","PERIOD":"91.725","ECCENTRICITY":"0.00039190","MEAN_ANOMALY":"91.6375","EPOCH":"2023-04-16T14:19:53.648544","OBJECT_ID":"2023-010AG","TIME_SYSTEM":"UTC","ARG_OF_PERICENTER":"268.4372","EPHEMERIS_TYPE":"0","GP_ID":"230201484","BSTAR":"0.00000474570000","SEMIMAJOR_AXIS":"6737.269","TLE_LINE1":"1 55299U 23010AG  23106.59714871  .00000357  00000-0  47457-5 0  9997","TLE_LINE2":"2 55299  69.9972 184.1272 0003919 268.4372  91.6375 15.69917879 15361","MEAN_MOTION":"15.69917879","SITE":"AFWTR","APOAPSIS":"361.774","MEAN_MOTION_DOT":"0.00000357","LAUNCH_DATE":"2023-01-19","CLASSIFICATION_TYPE":"U","RA_OF_ASC_NODE":"184.1272","REF_FRAME":"TEME","NORAD_CAT_ID":"55299","REV_AT_EPOCH":"1536","MEAN_ELEMENT_THEORY":"SGP4","COUNTRY_CODE":"US","OBJECT_NAME":"STARLINK-5270","DECAY_DATE":null},{"MEAN_MOTION_DOT":"-0.00001056","CLASSIFICATION_TYPE":"U","LAUNCH_DATE":"2023-01-19","MEAN_MOTION":"15.69924022","APOAPSIS":"361.630","SITE":"AFWTR","OBJECT_NAME":"STARLINK-5308","COUNTRY_CODE":"US","DECAY_DATE":null,"REF_FRAME":"TEME","RA_OF_ASC_NODE":"184.1259","MEAN_ELEMENT_THEORY":"SGP4","NORAD_CAT_ID":"55300","REV_AT_EPOCH":"1448","OBJECT_ID":"2023-010AH","MEAN_ANOMALY":"86.0167","PERIOD":"91.724","ECCENTRICITY":"0.00037310","EPOCH":"2023-04-16T14:19:16.979520","EPHEMERIS_TYPE":"0","ARG_OF_PERICENTER":"274.0603","TIME_SYSTEM":"UTC","INCLINATION":"69.9976","MEAN_MOTION_DDOT":"0.0000000000000","OBJECT_TYPE":"PAYLOAD","PERIAPSIS":"356.603","ELEMENT_SET_NO":"999","RCS_SIZE":"LARGE","CENTER_NAME":"EARTH","FILE":"3888799","TLE_LINE2":"2 55300  69.9976 184.1259 0003731 274.0603  86.0167 15.69924022 14482","TLE_LINE1":"1 55300U 23010AH  23106.59672430 -.00001056  00000-0 -70079-5 0  9999","GP_ID":"230200772","SEMIMAJOR_AXIS":"6737.251","BSTAR":"-0.00000700790000"},{"REV_AT_EPOCH":"1448","NORAD_CAT_ID":"55302","MEAN_ELEMENT_THEORY":"SGP4","RA_OF_ASC_NODE":"184.1230","REF_FRAME":"TEME","DECAY_DATE":null,"OBJECT_NAME":"STARLINK-5321","COUNTRY_CODE":"US","SITE":"AFWTR","APOAPSIS":"361.322","MEAN_MOTION":"15.69920863","LAUNCH_DATE":"2023-01-19","CLASSIFICATION_TYPE":"U","MEAN_MOTION_DOT":"-0.00000914","BSTAR":"-0.00000583160000","SEMIMAJOR_AXIS":"6737.260","GP_ID":"230201019","TLE_LINE1":"1 55302U 23010AK  23106.59662118 -.00000914  00000-0 -58316-5 0  9995","TLE_LINE2":"2 55302  69.9978 184.1230 0003261 266.9717  93.1105 15.69920863 14489","RCS_SIZE":"LARGE","ELEMENT_SET_NO":"999","FILE":"3888799","CENTER_NAME":"EARTH","PERIAPSIS":"356.928","OBJECT_TYPE":"PAYLOAD","INCLINATION":"69.9978","MEAN_MOTION_DDOT":"0.0000000000000","TIME_SYSTEM":"UTC","ARG_OF_PERICENTER":"266.9717","EPHEMERIS_TYPE":"0","EPOCH":"2023-04-16T14:19:08.069952","PERIOD":"91.724","MEAN_ANOMALY":"93.1105","ECCENTRICITY":"0.00032610","OBJECT_ID":"2023-010AK"},{"REF_FRAME":"TEME","RA_OF_ASC_NODE":"191.6792","MEAN_ELEMENT_THEORY":"SGP4","REV_AT_EPOCH":"1431","NORAD_CAT_ID":"55303","OBJECT_NAME":"STARLINK-5322","COUNTRY_CODE":"US","DECAY_DATE":null,"MEAN_MOTION":"14.99141849","APOAPSIS":"571.711","SITE":"AFWTR","MEAN_MOTION_DOT":"-0.00000798","CLASSIFICATION_TYPE":"U","LAUNCH_DATE":"2023-01-19","GP_ID":"230201273","SEMIMAJOR_AXIS":"6947.683","BSTAR":"-0.00005777300000","TLE_LINE2":"2 55303  69.9994 191.6792 0003113 269.9416  90.1386 14.99141849 14310","TLE_LINE1":"1 55303U 23010AL  23106.76766132 -.00000798  00000-0 -57773-4 0  9991","MEAN_MOTION_DDOT":"0.0000000000000","INCLINATION":"69.9994","PERIAPSIS":"567.386","OBJECT_TYPE":"PAYLOAD","RCS_SIZE":"LARGE","ELEMENT_SET_NO":"999","FILE":"3888799","CENTER_NAME":"EARTH","OBJECT_ID":"2023-010AL","EPOCH":"2023-04-16T18:25:25.938048","PERIOD":"96.055","MEAN_ANOMALY":"90.1386","ECCENTRICITY":"0.00031130","EPHEMERIS_TYPE":"0","TIME_SYSTEM":"UTC","ARG_OF_PERICENTER":"269.9416"},{"MEAN_MOTION_DDOT":"0.0000000000000","INCLINATION":"69.9984","OBJECT_TYPE":"PAYLOAD","PERIAPSIS":"356.928","FILE":"3888799","CENTER_NAME":"EARTH","ELEMENT_SET_NO":"999","RCS_SIZE":"LARGE","OBJECT_ID":"2023-010AM","PERIOD":"91.725","ECCENTRICITY":"0.00032890","MEAN_ANOMALY":"94.0901","EPOCH":"2023-04-16T14:18:59.689152","EPHEMERIS_TYPE":"0","ARG_OF_PERICENTER":"265.9919","TIME_SYSTEM":"UTC","GP_ID":"230201985","SEMIMAJOR_AXIS":"6737.278","BSTAR":"-0.00001834900000","TLE_LINE2":"2 55304  69.9984 184.1259 0003289 265.9919  94.0901 15.69914558 14480","TLE_LINE1":"1 55304U 23010AM  23106.59652418 -.00002417  00000-0 -18349-4 0  9990","MEAN_MOTION":"15.69914558","APOAPSIS":"361.359","SITE":"AFWTR","MEAN_MOTION_DOT":"-0.00002417","CLASSIFICATION_TYPE":"U","LAUNCH_DATE":"2023-01-19","REF_FRAME":"TEME","RA_OF_ASC_NODE":"184.1259","MEAN_ELEMENT_THEORY":"SGP4","REV_AT_EPOCH":"1448","NORAD_CAT_ID":"55304","OBJECT_NAME":"STARLINK-5318","COUNTRY_CODE":"US","DECAY_DATE":null},{"TLE_LINE2":"2 55305  69.9971 184.1353 0003195 260.2636  99.8199 15.69940579 14497","TLE_LINE1":"1 55305U 23010AN  23106.59977756 -.00005853  00000-0 -46910-4 0  9998","GP_ID":"230200272","SEMIMAJOR_AXIS":"6737.204","BSTAR":"-0.00004691000000","OBJECT_ID":"2023-010AN","EPOCH":"2023-04-16T14:23:40.781184","PERIOD":"91.723","MEAN_ANOMALY":"99.8199","ECCENTRICITY":"0.00031950","EPHEMERIS_TYPE":"0","TIME_SYSTEM":"UTC","ARG_OF_PERICENTER":"260.2636","MEAN_MOTION_DDOT":"0.0000000000000","INCLINATION":"69.9971","OBJECT_TYPE":"PAYLOAD","PERIAPSIS":"356.916","CENTER_NAME":"EARTH","FILE":"3888799","ELEMENT_SET_NO":"999","RCS_SIZE":"LARGE","OBJECT_NAME":"STARLINK-5316","COUNTRY_CODE":"US","DECAY_DATE":null,"REF_FRAME":"TEME","RA_OF_ASC_NODE":"184.1353","MEAN_ELEMENT_THEORY":"SGP4","REV_AT_EPOCH":"1449","NORAD_CAT_ID":"55305","MEAN_MOTION_DOT":"-0.00005853","CLASSIFICATION_TYPE":"U","LAUNCH_DATE":"2023-01-19","MEAN_MOTION":"15.69940579","APOAPSIS":"361.222","SITE":"AFWTR"},{"COUNTRY_CODE":"US","OBJECT_NAME":"STARLINK-5295","DECAY_DATE":null,"RA_OF_ASC_NODE":"184.1242","REF_FRAME":"TEME","REV_AT_EPOCH":"1449","NORAD_CAT_ID":"55306","MEAN_ELEMENT_THEORY":"SGP4","MEAN_MOTION_DOT":"-0.00001424","LAUNCH_DATE":"2023-01-19","CLASSIFICATION_TYPE":"U","MEAN_MOTION":"15.69919297","SITE":"AFWTR","APOAPSIS":"361.324","TLE_LINE1":"1 55306U 23010AP  23106.59630847 -.00001424  00000-0 -10079-4 0  9993","TLE_LINE2":"2 55306  69.9987 184.1242 0003257 261.0484  99.0343 15.69919297 14497","GP_ID":"230200519","BSTAR":"-0.00001007900000","SEMIMAJOR_AXIS":"6737.265","MEAN_ANOMALY":"99.0343","PERIOD":"91.724","ECCENTRICITY":"0.00032570","EPOCH":"2023-04-16T14:18:41.051808","OBJECT_ID":"2023-010AP","ARG_OF_PERICENTER":"261.0484","TIME_SYSTEM":"UTC","EPHEMERIS_TYPE":"0","INCLINATION":"69.9987","MEAN_MOTION_DDOT":"0.0000000000000","RCS_SIZE":"LARGE","ELEMENT_SET_NO":"999","CENTER_NAME":"EARTH","FILE":"3888799","PERIAPSIS":"356.936","OBJECT_TYPE":"PAYLOAD"},{"RA_OF_ASC_NODE":"184.1219","REF_FRAME":"TEME","NORAD_CAT_ID":"55307","REV_AT_EPOCH":"1449","MEAN_ELEMENT_THEORY":"SGP4","COUNTRY_CODE":"US","OBJECT_NAME":"STARLINK-5288","DECAY_DATE":null,"MEAN_MOTION":"15.69916008","SITE":"AFWTR","APOAPSIS":"361.400","MEAN_MOTION_DOT":"-0.00002387","LAUNCH_DATE":"2023-01-19","CLASSIFICATION_TYPE":"U","GP_ID":"230201774","BSTAR":"-0.00001809600000","SEMIMAJOR_AXIS":"6737.274","TLE_LINE1":"1 55307U 23010AQ  23106.59641094 -.00002387  00000-0 -18096-4 0  9996","TLE_LINE2":"2 55307  69.9991 184.1219 0003356 263.3479  96.7335 15.69916008 14498","MEAN_MOTION_DDOT":"0.0000000000000","INCLINATION":"69.9991","FILE":"3888799","CENTER_NAME":"EARTH","ELEMENT_SET_NO":"999","RCS_SIZE":"LARGE","OBJECT_TYPE":"PAYLOAD","PERIAPSIS":"356.878","PERIOD":"91.725","EPOCH":"2023-04-16T14:18:49.905216","MEAN_ANOMALY":"96.7335","ECCENTRICITY":"0.00033560","OBJECT_ID":"2023-010AQ","TIME_SYSTEM":"UTC","ARG_OF_PERICENTER":"263.3479","EPHEMERIS_TYPE":"0"}];
